[{"OBJECT_NAME":"CINEMA","OBJECT_ID":"2012-048G","EPOCH":"2026-03-09T23:21:38.910528","MEAN_MOTION":15.41758997,"ECCENTRICITY":0.00644529,"INCLINATION":64.645,"RA_OF_ASC_NODE":61.8658,"ARG_OF_PERICENTER":204.5071,"MEAN_ANOMALY":155.2999,"EPHEMERIS_TYPE":0,"CLASSIFICATION_TYPE":"U","NORAD_CAT_ID":38764,"ELEMENT_SET_NO":999,"REV_AT_EPOCH":10191,"BSTAR":0.00076174658,"MEAN_MOTION_DOT":0.0003483,"MEAN_MOTION_DDOT":0},{"OBJECT_NAME":"STARLINK-36079","OBJECT_ID":"2025-283V","EPOCH":"2026-03-09T04:21:44.006976","MEAN_MOTION":15.30145991,"ECCENTRICITY":0.00011773,"INCLINATION":53.1607,"RA_OF_ASC_NODE":26.7195,"ARG_OF_PERICENTER":62.3626,"MEAN_ANOMALY":297.7495,"EPHEMERIS_TYPE":0,"CLASSIFICATION_TYPE":"U","NORAD_CAT_ID":66897,"ELEMENT_SET_NO":999,"REV_AT_EPOCH":1575,"BSTAR":0.0010320877,"MEAN_MOTION_DOT":0.00030282,"MEAN_MOTION_DDOT":0}]
